GOES 1 (SMS-C)          
1 08366U 75100A   26073.54436867  .00000016  00000+0  00000+0 0  9992
2 08366   4.8486 278.6303 0005258   1.3309 326.2919  1.00239591184117
GOES 2                  
1 10061U 77048A   26073.58510219 -.00000011  00000+0  00000+0 0  9994
2 10061   6.6449 294.1424 0013934  48.7681 123.4021  0.99393353 45331
GOES 3                  
1 10953U 78062A   26073.56989043 -.00000295  00000+0  00000+0 0  9998
2 10953   7.1167 299.9787 0002447 358.8997 203.7067  0.99362842127591
GOES 4                  
1 11964U 80074A   26073.55052204 -.00000048  00000+0  00000+0 0  9992
2 11964   8.1902 303.6614 0032318 103.3413 232.8625  0.99227917126494
GOES 5                  
1 12472U 81049A   26073.37784880 -.00000176  00000+0  00000+0 0  9994
2 12472   9.5282 316.2812 0004574 339.5527 281.3209  1.00209622121899
GOES 6                  
1 14050U 83041A   26073.50192301 -.00000051  00000+0  00000+0 0  9990
2 14050  10.3415 321.8381 0002196 310.7866 328.7184  1.00218465215065
GOES 7                  
1 17561U 87022A   26072.32747086  .00000108  00000+0  00000+0 0  9990
2 17561  13.0128 338.3128 0004091  16.4870 148.7526  0.99898080126008
GOES 8                  
1 23051U 94022A   26072.73688353 -.00000210  00000+0  00000+0 0  9990
2 23051  14.3489  14.4005 0005321  16.4975 167.8499  0.98905808123185
GOES 9                  
1 23581U 95025A   26073.47061502  .00000020  00000+0  00000+0 0  9993
2 23581  13.8792  15.2412 0003243 209.1903 343.4937  0.98798943111825
GOES 10                 
1 24786U 97019A   26073.43669094  .00000073  00000+0  00000+0 0  9990
2 24786  13.0154  21.7714 0030638 238.7904 123.1937  0.99122438105132
GOES 11                 
1 26352U 00022A   26073.47330170  .00000062  00000+0  00000+0 0  9991
2 26352  11.6022  47.3458 0005720 258.1493 276.3533  0.99040167 51538
GOES 12                 
1 26871U 01031A   26073.40592413  .00000006  00000+0  00000+0 0  9999
2 26871  12.0137  38.0590 0008793 298.3279 241.0907  0.99134733 89821
EWS-G1 (GOES 13)        
1 29155U 06018A   26073.60684928 -.00000098  00000+0  00000+0 0  9994
2 29155   4.2858  77.5697 0061910 273.8154 233.5913  0.98788607 42318
GOES 14                 
1 35491U 09033A   26073.60728262  .00000110  00000+0  00000+0 0  9998
2 35491   1.4440  84.2624 0001679 273.9830 228.1978  1.00103446  5649
EWS-G2 (GOES 15)        
1 36411U 10008A   26073.62403521  .00000021  00000+0  00000+0 0  9996
2 36411   1.0320  84.9083 0002544  17.1366 358.2423  1.00270283 58692
GOES 16                 
1 41866U 16071A   26073.54774869 -.00000092  00000+0  00000+0 0  9998
2 41866   0.1235  86.9349 0002210 231.5878 306.1335  1.00273550 34153
GOES 17                 
1 43226U 18022A   26073.55078204 -.00000183  00000+0  00000+0 0  9990
2 43226   0.6927  87.3200 0001625 234.4927 319.1205  1.00272505 29473
